CZ-2D R/B               
1 28738U 05024B   26074.92964533  .00042094  00000+0  50574-3 0  9991
2 28738  97.3592  90.3072 0004765  30.5859 329.5675 15.60753003140752
ALOS (DAICHI)           
1 28931U 06002A   26074.83403154  .00001275  00000+0  22173-3 0  9990
2 28931  98.1227  30.7590 0000740  69.0969 291.0316 14.69830382 74386
H-2A R/B                
1 28932U 06002B   26074.94354118  .00009443  00000+0  47116-3 0  9997
2 28932  98.2415 222.5062 0051988 219.5560 140.1873 15.16568053 95382
RESURS-DK 1             
1 29228U 06021A   26074.81714191  .00003211  00000+0  18856-3 0  9990
2 29228  69.9326 221.1714 0001242 153.5700 206.5530 15.12791909 88458
CZ-4B R/B               
1 29507U 06046C   26074.61195722  .00004642  00000+0  23568-3 0  9993
2 29507  97.5587 119.5051 0031806 245.8404 113.9503 15.16968770 60944
CZ-2C R/B               
1 31114U 07010B   26074.92550956  .00000118  00000+0  73428-4 0  9995
2 31114  98.3983 187.8918 0057840 276.1470  83.3120 14.20248566980603
COSMO-SKYMED 1          
1 31598U 07023A   26074.94941561  .00003820  00000+0  34068-3 0  9992
2 31598  97.8883 266.0322 0001619  92.9979 267.1428 14.96592090 15847
COSMOS 2428             
1 31792U 07029A   26074.76468212 -.00000011  00000+0  19840-4 0  9993
2 31792  70.9439 190.5927 0009360 270.9402  89.0646 14.12947145964955
SL-16 R/B               
1 31793U 07029B   26074.66384344  .00000274  00000+0  16675-3 0  9998
2 31793  70.9757 159.8277 0002271 276.2076 246.2511 14.14835963966210
KORONAS-FOTON           
1 33504U 09003A   26074.92357211  .00012158  00000+0  27002-3 0  9996
2 33504  82.4270 269.3956 0011680 129.1340 231.0948 15.43475610946705
CZ-2C R/B               
1 37731U 11030B   26074.89474624  .00001543  00000+0  20048-3 0  9998
2 37731  97.8553  32.0339 0051895 331.7413  91.7930 14.81246596791013
H-2A R/B                
1 38341U 12025E   26074.88535136  .00002527  00000+0  23198-3 0  9998
2 38341  98.4733  42.4278 0043277 293.4714  66.1959 14.95216481749147
SHIJIAN-16 (SJ-16)      
1 39358U 13057A   26074.93062688  .00002766  00000+0  27245-3 0  9998
2 39358  74.9734 173.2744 0015400  96.4664 263.8278 14.92378389672439
SL-4 R/B                
1 39679U 14021B   26074.92637133  .00014573  00000+0  32013-3 0  9996
2 39679  51.6065 306.8490 0096959 125.7536 235.2512 15.39397720657235
ALOS-2                  
1 39766U 14029A   26074.94084634  .00000527  00000+0  77405-4 0  9994
2 39766  97.9190 173.4472 0001381  94.3886 265.7483 14.79527775637798
YAOGAN-29               
1 41038U 15069A   26074.93442723 -.00000042  00000+0  14668-5 0  9996
2 41038  98.0142 103.3806 0001535  25.4885 334.6404 14.83001715556807
ASTRO-H (HITOMI)        
1 41337U 16012A   26074.97986984  .00002936  00000+0  17031-3 0  9991
2 41337  31.0002 315.9559 0009670  33.9693 326.1563 15.10050096553183
HXMT (HUIYAN)           
1 42758U 17034A   26074.96476375  .00005368  00000+0  27045-3 0  9999
2 42758  43.0161 341.7853 0033254 274.0476  85.6572 15.17560668483497
SAOCOM 1A               
1 43641U 18076A   26074.97147448  .00000763  00000+0  10241-3 0  9999
2 43641  97.8898 263.0553 0001468  83.7862 276.3519 14.82149649402294
H-2A R/B                
1 43682U 18084L   26074.70481985  .00017217  00000+0  40673-3 0  9995
2 43682  98.8729 293.3795 0024960   4.7146 355.4326 15.41625598406700
SAOCOM 1B               
1 46265U 20059A   26073.04490030  .00000161  00000+0  26755-4 0  9993
2 46265  97.8899 260.2532 0001383  84.3427 275.7944 14.82151938299390
CSS (TIANHE)            
1 48274U 21035A   26074.66617283  .00022966  00000+0  26860-3 0  9993
2 48274  41.4669 171.7890 0006367 308.3503  51.6764 15.61005371278548
COSMOS 2550             
1 48865U 21056A   26074.25558969 -.00000200  00000+0 -25088-6 0  9995
2 48865  67.1441  24.0967 0008313 268.6753  91.3449 15.33842811264318
CZ-2C R/B               
1 52794U 22058K   26074.94055060  .00031639  00000+0  45487-3 0  9994
2 52794  50.1879 286.1244 0041969 227.4447 132.2978 15.54710010211106
CZ-2C R/B               
1 54039U 22132E   26074.96954455  .00041544  00000+0  46298-3 0  9996
2 54039  97.2954  78.4798 0020100  71.5007 288.8434 15.62466138191353
GSLV R/B                
1 54149U 22138AN  26074.67087670  .00002830  00000+0  24339-3 0  9995
2 54149  87.3882 164.3608 0023634 126.6775 233.6634 14.96821481184825
XRISM                   
1 57800U 23137A   26074.91398952  .00005171  00000+0  29160-3 0  9995
2 57800  31.0005 243.4010 0007914 101.4444 258.7084 15.11573994138735
ACS3                    
1 59588U 24077B   26074.83366377  .00014422  00000+0  11528-1 0  9997
2 59588  97.2032  14.5642 0065204  61.8624 298.9109 13.89880275 95054
SZ-21 MODULE            
1 66515U 25246C   26074.61177792  .00034609  00000+0  29227-3 0  9997
2 66515  41.4740 166.8918 0000819 310.4718  49.6052 15.69044572 19005
